start=new Date('2022-08-31T00:00:00.000Z').valueOf();
sats=[{"ECCENTRICITY":"0.00012980","MEAN_MOTION":"15.06387468","REV_AT_EPOCH":"10266","TIME_SYSTEM":"UTC","MEAN_ANOMALY":"286.3181","LAUNCH_DATE":"2020-10-24","MEAN_MOTION_DOT":"-0.00001106","PERIAPSIS":"546.353","RCS_SIZE":"LARGE","COUNTRY_CODE":"US","OBJECT_TYPE":"PAYLOAD","TLE_LINE2":"2 46752  53.0579 340.0254 0001298  73.7951 286.3181 15.06387468102667","SITE":"AFETR","OBJECT_NAME":"STARLINK-1921","OBJECT_ID":"2020-074P","PERIOD":"95.593","ARG_OF_PERICENTER":"73.7951","CLASSIFICATION_TYPE":"U","INCLINATION":"53.0579","BSTAR":"-0.00005536300000","NORAD_CAT_ID":"46752","FILE":"3551880","DECAY_DATE":null,"ELEMENT_SET_NO":"999","MEAN_ELEMENT_THEORY":"SGP4","RA_OF_ASC_NODE":"340.0254","GP_ID":"211328075","MEAN_MOTION_DDOT":"0.0000000000000","EPHEMERIS_TYPE":"0","CENTER_NAME":"EARTH","EPOCH":"2022-08-30T12:02:26.079072","SEMIMAJOR_AXIS":"6925.387","APOAPSIS":"548.151","TLE_LINE1":"1 46752U 20074P   22242.50169073 -.00001106  00000-0 -55363-4 0  9996","REF_FRAME":"TEME"},{"MEAN_MOTION":"15.06398212","ECCENTRICITY":"0.00013510","TIME_SYSTEM":"UTC","REV_AT_EPOCH":"10270","OBJECT_TYPE":"PAYLOAD","COUNTRY_CODE":"US","RCS_SIZE":"LARGE","LAUNCH_DATE":"2020-10-24","MEAN_MOTION_DOT":"-0.00000721","PERIAPSIS":"546.283","MEAN_ANOMALY":"292.1759","CLASSIFICATION_TYPE":"U","PERIOD":"95.592","ARG_OF_PERICENTER":"67.9373","OBJECT_NAME":"STARLINK-1922","OBJECT_ID":"2020-074Q","SITE":"AFETR","TLE_LINE2":"2 46753  53.0569 338.9905 0001351  67.9373 292.1759 15.06398212102709","ELEMENT_SET_NO":"999","DECAY_DATE":null,"FILE":"3552179","NORAD_CAT_ID":"46753","BSTAR":"-0.00002954800000","INCLINATION":"53.0569","CENTER_NAME":"EARTH","EPHEMERIS_TYPE":"0","GP_ID":"211360031","MEAN_MOTION_DDOT":"0.0000000000000","RA_OF_ASC_NODE":"338.9905","MEAN_ELEMENT_THEORY":"SGP4","APOAPSIS":"548.155","SEMIMAJOR_AXIS":"6925.354","EPOCH":"2022-08-30T17:36:49.197600","REF_FRAME":"TEME","TLE_LINE1":"1 46753U 20074Q   22242.73390275 -.00000721  00000-0 -29548-4 0  9990"},{"EPOCH":"2022-08-30T16:11:53.496672","SEMIMAJOR_AXIS":"6925.370","APOAPSIS":"548.274","TLE_LINE1":"1 46754U 20074R   22242.67492473 -.00000739  00000-0 -30699-4 0  9995","REF_FRAME":"TEME","INCLINATION":"53.0570","NORAD_CAT_ID":"46754","BSTAR":"-0.00003069900000","DECAY_DATE":null,"FILE":"3552179","ELEMENT_SET_NO":"999","RA_OF_ASC_NODE":"339.2453","MEAN_ELEMENT_THEORY":"SGP4","MEAN_MOTION_DDOT":"0.0000000000000","GP_ID":"211358779","EPHEMERIS_TYPE":"0","CENTER_NAME":"EARTH","MEAN_ANOMALY":"236.5439","LAUNCH_DATE":"2020-10-24","PERIAPSIS":"546.195","MEAN_MOTION_DOT":"-0.00000739","RCS_SIZE":"LARGE","COUNTRY_CODE":"US","OBJECT_TYPE":"PAYLOAD","TLE_LINE2":"2 46754  53.0570 339.2453 0001501 123.5693 236.5439 15.06393013102694","SITE":"AFETR","OBJECT_NAME":"STARLINK-1923","OBJECT_ID":"2020-074R","ARG_OF_PERICENTER":"123.5693","PERIOD":"95.593","CLASSIFICATION_TYPE":"U","ECCENTRICITY":"0.00015010","MEAN_MOTION":"15.06393013","REV_AT_EPOCH":"10269","TIME_SYSTEM":"UTC"},{"APOAPSIS":"548.338","SEMIMAJOR_AXIS":"6925.354","EPOCH":"2022-08-30T11:32:34.088640","REF_FRAME":"TEME","TLE_LINE1":"1 46755U 20074S   22242.48095010  .00001819  00000-0  14098-3 0  9993","ELEMENT_SET_NO":"999","FILE":"3551880","DECAY_DATE":null,"NORAD_CAT_ID":"46755","BSTAR":"0.00014098000000","INCLINATION":"53.0562","CENTER_NAME":"EARTH","EPHEMERIS_TYPE":"0","GP_ID":"211327325","MEAN_MOTION_DDOT":"0.0000000000000","RA_OF_ASC_NODE":"345.1170","MEAN_ELEMENT_THEORY":"SGP4","OBJECT_TYPE":"PAYLOAD","COUNTRY_CODE":"US","RCS_SIZE":"LARGE","LAUNCH_DATE":"2020-10-24","PERIAPSIS":"546.100","MEAN_MOTION_DOT":"0.00001819","MEAN_ANOMALY":"297.8270","CLASSIFICATION_TYPE":"U","ARG_OF_PERICENTER":"62.2883","PERIOD":"95.592","OBJECT_NAME":"STARLINK-1924","OBJECT_ID":"2020-074S","SITE":"AFETR","TLE_LINE2":"2 46755  53.0562 345.1170 0001616  62.2883 297.8270 15.06398291102590","MEAN_MOTION":"15.06398291","ECCENTRICITY":"0.00016160","TIME_SYSTEM":"UTC","REV_AT_EPOCH":"10259"},{"SEMIMAJOR_AXIS":"6925.381","EPOCH":"2022-08-30T10:39:34.000128","APOAPSIS":"548.275","TLE_LINE1":"1 46756U 20074T   22242.44414352 -.00001805  00000-0 -10233-3 0  9998","REF_FRAME":"TEME","BSTAR":"-0.00010233000000","NORAD_CAT_ID":"46756","INCLINATION":"53.0559","ELEMENT_SET_NO":"999","FILE":"3551880","DECAY_DATE":null,"RA_OF_ASC_NODE":"345.6827","MEAN_ELEMENT_THEORY":"SGP4","CENTER_NAME":"EARTH","EPHEMERIS_TYPE":"0","MEAN_MOTION_DDOT":"0.0000000000000","GP_ID":"211327575","RCS_SIZE":"LARGE","PERIAPSIS":"546.218","LAUNCH_DATE":"2020-10-24","MEAN_MOTION_DOT":"-0.00001805","MEAN_ANOMALY":"290.4714","OBJECT_TYPE":"PAYLOAD","COUNTRY_CODE":"US","SITE":"AFETR","TLE_LINE2":"2 46756  53.0559 345.6827 0001485  69.6435 290.4714 15.06389271102588","CLASSIFICATION_TYPE":"U","ARG_OF_PERICENTER":"69.6435","PERIOD":"95.593","OBJECT_ID":"2020-074T","OBJECT_NAME":"STARLINK-1925","ECCENTRICITY":"0.00014850","MEAN_MOTION":"15.06389271","REV_AT_EPOCH":"10258","TIME_SYSTEM":"UTC"},{"COUNTRY_CODE":"US","OBJECT_TYPE":"PAYLOAD","MEAN_ANOMALY":"290.4730","LAUNCH_DATE":"2020-10-24","PERIAPSIS":"546.131","MEAN_MOTION_DOT":"0.00001979","RCS_SIZE":"LARGE","OBJECT_NAME":"STARLINK-1926","OBJECT_ID":"2020-074U","ARG_OF_PERICENTER":"69.6427","PERIOD":"95.592","CLASSIFICATION_TYPE":"U","TLE_LINE2":"2 46757  53.0552 345.4572 0001570  69.6427 290.4730 15.06398356102585","SITE":"AFETR","MEAN_MOTION":"15.06398356","ECCENTRICITY":"0.00015700","TIME_SYSTEM":"UTC","REV_AT_EPOCH":"10258","APOAPSIS":"548.306","EPOCH":"2022-08-30T11:00:45.707040","SEMIMAJOR_AXIS":"6925.354","REF_FRAME":"TEME","TLE_LINE1":"1 46757U 20074U   22242.45886235  .00001979  00000-0  15175-3 0  9993","FILE":"3551880","DECAY_DATE":null,"ELEMENT_SET_NO":"999","INCLINATION":"53.0552","BSTAR":"0.00015175000000","NORAD_CAT_ID":"46757","GP_ID":"211328322","MEAN_MOTION_DDOT":"0.0000000000000","EPHEMERIS_TYPE":"0","CENTER_NAME":"EARTH","RA_OF_ASC_NODE":"345.4572","MEAN_ELEMENT_THEORY":"SGP4"},{"APOAPSIS":"548.241","SEMIMAJOR_AXIS":"6925.341","EPOCH":"2022-08-30T17:28:10.953120","REF_FRAME":"TEME","TLE_LINE1":"1 46758U 20074V   22242.72790455  .00001128  00000-0  94599-4 0  9996","DECAY_DATE":null,"FILE":"3552179","ELEMENT_SET_NO":"999","NORAD_CAT_ID":"46758","BSTAR":"0.00009459900000","INCLINATION":"53.0555","CENTER_NAME":"EARTH","MEAN_MOTION_DDOT":"0.0000000000000","GP_ID":"211359280","EPHEMERIS_TYPE":"0","MEAN_ELEMENT_THEORY":"SGP4","RA_OF_ASC_NODE":"344.0048","OBJECT_TYPE":"PAYLOAD","COUNTRY_CODE":"US","LAUNCH_DATE":"2020-10-24","MEAN_MOTION_DOT":"0.00001128","PERIAPSIS":"546.170","RCS_SIZE":"LARGE","MEAN_ANOMALY":"287.6853","CLASSIFICATION_TYPE":"U","OBJECT_ID":"2020-074V","OBJECT_NAME":"STARLINK-1928","PERIOD":"95.592","ARG_OF_PERICENTER":"72.4299","SITE":"AFETR","TLE_LINE2":"2 46758  53.0555 344.0048 0001495  72.4299 287.6853 15.06402543102631","MEAN_MOTION":"15.06402543","ECCENTRICITY":"0.00014950","TIME_SYSTEM":"UTC","REV_AT_EPOCH":"10263"},{"CENTER_NAME":"EARTH","MEAN_MOTION_DDOT":"0.0000000000000","GP_ID":"211359030","EPHEMERIS_TYPE":"0","RA_OF_ASC_NODE":"354.0510","MEAN_ELEMENT_THEORY":"SGP4","FILE":"3552179","DECAY_DATE":null,"ELEMENT_SET_NO":"999","NORAD_CAT_ID":"46759","BSTAR":"0.00045891000000","INCLINATION":"53.0550","REF_FRAME":"TEME","TLE_LINE1":"1 46759U 20074W   22242.72330128  .00006562  00000-0  45891-3 0  9991","APOAPSIS":"548.231","SEMIMAJOR_AXIS":"6925.328","EPOCH":"2022-08-30T17:21:33.230592","TIME_SYSTEM":"UTC","REV_AT_EPOCH":"10248","MEAN_MOTION":"15.06406807","ECCENTRICITY":"0.00014990","CLASSIFICATION_TYPE":"U","OBJECT_ID":"2020-074W","OBJECT_NAME":"STARLINK-1833","PERIOD":"95.592","ARG_OF_PERICENTER":"71.8473","SITE":"AFETR","TLE_LINE2":"2 46759  53.0550 354.0510 0001499  71.8473 288.2679 15.06406807102486","OBJECT_TYPE":"PAYLOAD","COUNTRY_CODE":"US","LAUNCH_DATE":"2020-10-24","PERIAPSIS":"546.155","MEAN_MOTION_DOT":"0.00006562","RCS_SIZE":"LARGE","MEAN_ANOMALY":"288.2679"},{"TIME_SYSTEM":"UTC","REV_AT_EPOCH":"10249","MEAN_MOTION":"15.06389204","ECCENTRICITY":"0.00013190","OBJECT_NAME":"STARLINK-1896","OBJECT_ID":"2020-074X","PERIOD":"95.593","ARG_OF_PERICENTER":"78.4949","CLASSIFICATION_TYPE":"U","TLE_LINE2":"2 46760  53.0564 353.9998 0001319  78.4949 281.6188 15.06389204102497","SITE":"AFETR","COUNTRY_CODE":"US","OBJECT_TYPE":"PAYLOAD","MEAN_ANOMALY":"281.6188","LAUNCH_DATE":"2020-10-24","PERIAPSIS":"546.333","MEAN_MOTION_DOT":"-0.00002322","RCS_SIZE":"LARGE","MEAN_MOTION_DDOT":"0.0000000000000","GP_ID":"211360282","EPHEMERIS_TYPE":"0","CENTER_NAME":"EARTH","MEAN_ELEMENT_THEORY":"SGP4","RA_OF_ASC_NODE":"353.9998","FILE":"3552179","DECAY_DATE":null,"ELEMENT_SET_NO":"999","INCLINATION":"53.0564","BSTAR":"-0.00013707000000","NORAD_CAT_ID":"46760","REF_FRAME":"TEME","TLE_LINE1":"1 46760U 20074X   22242.73439013 -.00002322  00000-0 -13707-3 0  9990","APOAPSIS":"548.160","EPOCH":"2022-08-30T17:37:31.307232","SEMIMAJOR_AXIS":"6925.382"},{"APOAPSIS":"426.515","EPOCH":"2022-08-30T19:22:30.405504","SEMIMAJOR_AXIS":"6804.269","REF_FRAME":"TEME","TLE_LINE1":"1 46763U 20074AA  22242.80729636  .00147888  00000-0  28568-2 0  9999","DECAY_DATE":null,"FILE":"3552179","ELEMENT_SET_NO":"999","INCLINATION":"53.0531","BSTAR":"0.00285680000000","NORAD_CAT_ID":"46763","GP_ID":"211360032","MEAN_MOTION_DDOT":"0.0000000000000","EPHEMERIS_TYPE":"0","CENTER_NAME":"EARTH","MEAN_ELEMENT_THEORY":"SGP4","RA_OF_ASC_NODE":"296.4799","COUNTRY_CODE":"US","OBJECT_TYPE":"PAYLOAD","MEAN_ANOMALY":"9.2638","LAUNCH_DATE":"2020-10-24","PERIAPSIS":"425.753","MEAN_MOTION_DOT":"0.00147888","RCS_SIZE":"LARGE","OBJECT_NAME":"STARLINK-1902","OBJECT_ID":"2020-074AA","PERIOD":"93.096","ARG_OF_PERICENTER":"350.8358","CLASSIFICATION_TYPE":"U","TLE_LINE2":"2 46763  53.0531 296.4799 0000560 350.8358   9.2638 15.46787256103311","SITE":"AFETR","MEAN_MOTION":"15.46787256","ECCENTRICITY":"0.00005600","TIME_SYSTEM":"UTC","REV_AT_EPOCH":"10331"}];
